{
    "links": {
        "self": "http://www.neowsapp.com/rest/v1/neo/3802056?api_key=iIulBulltgU6a56xZRHN4H3l9WmuAYTsLGpBGhQ2"
    },
    "id": "3802056",
    "neo_reference_id": "3802056",
    "name": "(2018 FQ3)",
    "designation": "2018 FQ3",
    "nasa_jpl_url": "http://ssd.jpl.nasa.gov/sbdb.cgi?sstr=3802056",
    "absolute_magnitude_h": 28.6,
    "estimated_diameter": {
        "kilometers": {
            "estimated_diameter_min": 0.0050647146,
            "estimated_diameter_max": 0.0113250461
        },
        "meters": {
            "estimated_diameter_min": 5.0647145883,
            "estimated_diameter_max": 11.3250461062
        },
        "miles": {
            "estimated_diameter_min": 0.0031470668,
            "estimated_diameter_max": 0.0070370552
        },
        "feet": {
            "estimated_diameter_min": 16.61651821,
            "estimated_diameter_max": 37.155664267
        }
    },
    "is_potentially_hazardous_asteroid": false,
    "close_approach_data": [
        {
            "close_approach_date": "2018-03-18",
            "close_approach_date_full": "2018-Mar-18 21:14",
            "epoch_date_close_approach": 1521407640000,
            "relative_velocity": {
                "kilometers_per_second": "11.2020248746",
                "kilometers_per_hour": "40327.289548645",
                "miles_per_hour": "25057.8094420455"
            },
            "miss_distance": {
                "astronomical": "0.0028205854",
                "lunar": "1.0972077206",
                "kilometers": "421953.567993098",
                "miles": "262189.7892488324"
            },
            "orbiting_body": "Moon"
        },
        {
            "close_approach_date": "2018-03-19",
            "close_approach_date_full": "2018-Mar-19 05:59",
            "epoch_date_close_approach": 1521439140000,
            "relative_velocity": {
                "kilometers_per_second": "11.0397526417",
                "kilometers_per_hour": "39743.1095101528",
                "miles_per_hour": "24694.8226842391"
            },
            "miss_distance": {
                "astronomical": "0.0018693142",
                "lunar": "0.7271632238",
                "kilometers": "279645.422680754",
                "miles": "173763.6081282452"
            },
            "orbiting_body": "Earth"
        }
    ],
    "orbital_data": {
        "orbit_id": "1",
        "orbit_determination_date": "2018-03-22 07:42:05",
        "first_observation_date": "2018-03-20",
        "last_observation_date": "2018-03-22",
        "data_arc_in_days": 2,
        "observations_used": 17,
        "orbit_uncertainty": "8",
        "minimum_orbit_intersection": ".00187722",
        "jupiter_tisserand_invariant": "3.860",
        "epoch_osculation": "2458199.5",
        "eccentricity": ".508309901551671",
        "semi_major_axis": "1.825950512978751",
        "inclination": "7.858014491444156",
        "ascending_node_longitude": "179.041717681639",
        "orbital_period": "901.2223042567158",
        "perihelion_distance": ".8978017874882992",
        "perihelion_argument": "314.2343119708485",
        "aphelion_distance": "2.754099238469204",
        "perihelion_time": "2458162.735504405048",
        "mean_anomaly": "14.68585314818466",
        "mean_motion": ".3994574904544894",
        "equinox": "J2000",
        "orbit_class": {
            "orbit_class_type": "APO",
            "orbit_class_description": "Near-Earth asteroid orbits which cross the Earth’s orbit similar to that of 1862 Apollo",
            "orbit_class_range": "a (semi-major axis) > 1.0 AU; q (perihelion) < 1.017 AU"
        }
    },
    "is_sentry_object": false
}